{
  "type": "FeatureCollection",
  "features": [
    {
      "type": "Feature",
      "properties": {
        "norad_id": 32459,
        "name": "FENGYUN 1C DEB",
        "group": "fengyun-1c-debris",
        "lat": -21.11437718785658,
        "lon": 10.669532026971993,
        "alt_km": 905.2335041640308,
        "timestamp": "2025-12-19T08:58:49.624554+00:00",
        "meta_object_name": "FENGYUN 1C DEB",
        "meta_object_id": "1999-025DBX",
        "meta_epoch": "2025-12-17T20:27:59.271840",
        "meta_mean_motion": 14.4282892,
        "meta_eccentricity": 0.02134957,
        "meta_inclination": 98.3021,
        "meta_ra_of_asc_node": 5.9542,
        "meta_arg_of_pericenter": 170.8776,
        "meta_mean_anomaly": 189.6392,
        "meta_ephemeris_type": 0,
        "meta_classification_type": "U",
        "meta_norad_cat_id": 32459,
        "meta_element_set_no": 999,
        "meta_rev_at_epoch": 94624,
        "meta_bstar": 0.00036540002,
        "meta_mean_motion_dot": 1.555e-05,
        "meta_mean_motion_ddot": 0,
        "tle_line1": "1 32459U 99025DBX 25351.85276935  .00001555  00000+0  36540-3 0  9995",
        "tle_line2": "2 32459  98.3021   5.9542 0213495 170.8776 189.6392 14.42828920946246"
      },
      "geometry": {
        "type": "Point",
        "coordinates": [
          10.669532026971993,
          -21.11437718785658
        ]
      }
    },
    {
      "type": "Feature",
      "properties": {
        "norad_id": 32460,
        "name": "FENGYUN 1C DEB",
        "group": "fengyun-1c-debris",
        "lat": -14.700361716917575,
        "lon": -44.48225377419905,
        "alt_km": 929.7089376485656,
        "timestamp": "2025-12-19T08:58:49.624563+00:00",
        "meta_object_name": "FENGYUN 1C DEB",
        "meta_object_id": "1999-025DBY",
        "meta_epoch": "2025-12-16T16:07:35.360256",
        "meta_mean_motion": 13.89589165,
        "meta_eccentricity": 0.01851829,
        "meta_inclination": 98.0198,
        "meta_ra_of_asc_node": 135.3065,
        "meta_arg_of_pericenter": 113.3101,
        "meta_mean_anomaly": 248.7668,
        "meta_ephemeris_type": 0,
        "meta_classification_type": "U",
        "meta_norad_cat_id": 32460,
        "meta_element_set_no": 999,
        "meta_rev_at_epoch": 65308,
        "meta_bstar": 0.0008481014,
        "meta_mean_motion_dot": 1.158e-05,
        "meta_mean_motion_ddot": 0,
        "tle_line1": "1 32460U 99025DBY 25350.67193704  .00001158  00000+0  84810-3 0  9990",
        "tle_line2": "2 32460  98.0198 135.3065 0185182 113.3101 248.7668 13.89589165653088"
      },
      "geometry": {
        "type": "Point",
        "coordinates": [
          -44.48225377419905,
          -14.700361716917575
        ]
      }
    },
    {
      "type": "Feature",
      "properties": {
        "norad_id": 32461,
        "name": "FENGYUN 1C DEB",
        "group": "fengyun-1c-debris",
        "lat": -73.35938903825443,
        "lon": -1.6719262133446942,
        "alt_km": 1152.92719821035,
        "timestamp": "2025-12-19T08:58:49.624574+00:00",
        "meta_object_name": "FENGYUN 1C DEB",
        "meta_object_id": "1999-025DBZ",
        "meta_epoch": "2025-12-17T02:15:31.192128",
        "meta_mean_motion": 13.72843893,
        "meta_eccentricity": 0.02323804,
        "meta_inclination": 98.3342,
        "meta_ra_of_asc_node": 205.71,
        "meta_arg_of_pericenter": 105.2455,
        "meta_mean_anomaly": 46.6373,
        "meta_ephemeris_type": 0,
        "meta_classification_type": "U",
        "meta_norad_cat_id": 32461,
        "meta_element_set_no": 999,
        "meta_rev_at_epoch": 67354,
        "meta_bstar": 0.0011039273,
        "meta_mean_motion_dot": 1.2e-05,
        "meta_mean_motion_ddot": 0,
        "tle_line1": "1 32461U 99025DBZ 25351.09411102  .00001200  00000+0  11039-2 0  9993",
        "tle_line2": "2 32461  98.3342 205.7100 0232380 105.2455  46.6373 13.72843893673544"
      },
      "geometry": {
        "type": "Point",
        "coordinates": [
          -1.6719262133446942,
          -73.35938903825443
        ]
      }
    },
    {
      "type": "Feature",
      "properties": {
        "norad_id": 32464,
        "name": "FENGYUN 1C DEB",
        "group": "fengyun-1c-debris",
        "lat": -36.81132654187633,
        "lon": 22.814181714163734,
        "alt_km": 619.6740922060617,
        "timestamp": "2025-12-19T08:58:49.624583+00:00",
        "meta_object_name": "FENGYUN 1C DEB",
        "meta_object_id": "1999-025DCC",
        "meta_epoch": "2025-12-16T07:09:36.734976",
        "meta_mean_motion": 14.9303829,
        "meta_eccentricity": 0.01123489,
        "meta_inclination": 97.3567,
        "meta_ra_of_asc_node": 14.3879,
        "meta_arg_of_pericenter": 224.0102,
        "meta_mean_anomaly": 135.2133,
        "meta_ephemeris_type": 0,
        "meta_classification_type": "U",
        "meta_norad_cat_id": 32464,
        "meta_element_set_no": 999,
        "meta_rev_at_epoch": 60845,
        "meta_bstar": 0.00088160326,
        "meta_mean_motion_dot": 0.00010328,
        "meta_mean_motion_ddot": 0,
        "tle_line1": "1 32464U 99025DCC 25350.29834184  .00010328  00000+0  88160-3 0  9997",
        "tle_line2": "2 32464  97.3567  14.3879 0112348 224.0102 135.2133 14.93038290608450"
      },
      "geometry": {
        "type": "Point",
        "coordinates": [
          22.814181714163734,
          -36.81132654187633
        ]
      }
    },
    {
      "type": "Feature",
      "properties": {
        "norad_id": 33502,
        "name": "FENGYUN 1C DEB",
        "group": "fengyun-1c-debris",
        "lat": -57.119549415098746,
        "lon": -49.4820179164199,
        "alt_km": 882.060790021128,
        "timestamp": "2025-12-19T08:58:49.624593+00:00",
        "meta_object_name": "FENGYUN 1C DEB",
        "meta_object_id": "1999-025DCF",
        "meta_epoch": "2025-12-18T20:00:21.371616",
        "meta_mean_motion": 14.21923508,
        "meta_eccentricity": 0.00797359,
        "meta_inclination": 99.026,
        "meta_ra_of_asc_node": 295.7309,
        "meta_arg_of_pericenter": 135.0625,
        "meta_mean_anomaly": 280.7966,
        "meta_ephemeris_type": 0,
        "meta_classification_type": "U",
        "meta_norad_cat_id": 33502,
        "meta_element_set_no": 999,
        "meta_rev_at_epoch": 87042,
        "meta_bstar": 0.0018331659,
        "meta_mean_motion_dot": 4.134e-05,
        "meta_mean_motion_ddot": 0,
        "tle_line1": "1 33502U 99025DCF 25352.83358069  .00004134  00000+0  18332-2 0  9997",
        "tle_line2": "2 33502  99.0260 295.7309 0079735 135.0625 280.7966 14.21923508870423"
      },
      "geometry": {
        "type": "Point",
        "coordinates": [
          -49.4820179164199,
          -57.119549415098746
        ]
      }
    },
    {
      "type": "Feature",
      "properties": {
        "norad_id": 33599,
        "name": "FENGYUN 1C DEB",
        "group": "fengyun-1c-debris",
        "lat": -55.46928948478907,
        "lon": 69.98875321542192,
        "alt_km": 448.75504052050746,
        "timestamp": "2025-12-19T08:58:49.624603+00:00",
        "meta_object_name": "FENGYUN 1C DEB",
        "meta_object_id": "1999-025DCG",
        "meta_epoch": "2025-12-06T10:36:41.156064",
        "meta_mean_motion": 15.14898296,
        "meta_eccentricity": 0.0126212,
        "meta_inclination": 96.6136,
        "meta_ra_of_asc_node": 49.0151,
        "meta_arg_of_pericenter": 322.3863,
        "meta_mean_anomaly": 36.8593,
        "meta_ephemeris_type": 0,
        "meta_classification_type": "U",
        "meta_norad_cat_id": 33599,
        "meta_element_set_no": 999,
        "meta_rev_at_epoch": 65908,
        "meta_bstar": 0.0016783,
        "meta_mean_motion_dot": 0.00038297,
        "meta_mean_motion_ddot": 0,
        "tle_line1": "1 33599U 99025DCG 25340.44214301  .00038297  00000+0  16783-2 0  9992",
        "tle_line2": "2 33599  96.6136  49.0151 0126212 322.3863  36.8593 15.14898296659088"
      },
      "geometry": {
        "type": "Point",
        "coordinates": [
          69.98875321542192,
          -55.46928948478907
        ]
      }
    },
    {
      "type": "Feature",
      "properties": {
        "norad_id": 33601,
        "name": "FENGYUN 1C DEB",
        "group": "fengyun-1c-debris",
        "lat": 3.177868841176638,
        "lon": 148.5825293376325,
        "alt_km": 925.6402494982249,
        "timestamp": "2025-12-19T08:58:49.624613+00:00",
        "meta_object_name": "FENGYUN 1C DEB",
        "meta_object_id": "1999-025DCJ",
        "meta_epoch": "2025-12-16T22:58:28.321536",
        "meta_mean_motion": 14.0793263,
        "meta_eccentricity": 0.01584896,
        "meta_inclination": 98.3139,
        "meta_ra_of_asc_node": 146.8203,
        "meta_arg_of_pericenter": 130.619,
        "meta_mean_anomaly": 230.8891,
        "meta_ephemeris_type": 0,
        "meta_classification_type": "U",
        "meta_norad_cat_id": 33601,
        "meta_element_set_no": 999,
        "meta_rev_at_epoch": 90739,
        "meta_bstar": 0.00093349345,
        "meta_mean_motion_dot": 1.741e-05,
        "meta_mean_motion_ddot": 0,
        "tle_line1": "1 33601U 99025DCJ 25350.95727224  .00001741  00000+0  93349-3 0  9994",
        "tle_line2": "2 33601  98.3139 146.8203 0158489 130.6190 230.8891 14.07932630907391"
      },
      "geometry": {
        "type": "Point",
        "coordinates": [
          148.5825293376325,
          3.177868841176638
        ]
      }
    }
  ]
}